METOP-B      
1 38771U 12049A   15060.09038281  .00000104  00000-0  67552-4 0  9999
2 38771  98.7116 121.5278 0001914 123.9555 292.2003 14.21473887127060